{
    "links": {
        "self": "http://www.neowsapp.com/rest/v1/neo/3661266?api_key=iIulBulltgU6a56xZRHN4H3l9WmuAYTsLGpBGhQ2"
    },
    "id": "3661266",
    "neo_reference_id": "3661266",
    "name": "(2014 BE63)",
    "designation": "2014 BE63",
    "nasa_jpl_url": "http://ssd.jpl.nasa.gov/sbdb.cgi?sstr=3661266",
    "absolute_magnitude_h": 23.2,
    "estimated_diameter": {
        "kilometers": {
            "estimated_diameter_min": 0.0608912622,
            "estimated_diameter_max": 0.1361570015
        },
        "meters": {
            "estimated_diameter_min": 60.8912622106,
            "estimated_diameter_max": 136.1570015386
        },
        "miles": {
            "estimated_diameter_min": 0.0378360645,
            "estimated_diameter_max": 0.0846040122
        },
        "feet": {
            "estimated_diameter_min": 199.7744887109,
            "estimated_diameter_max": 446.7093369279
        }
    },
    "is_potentially_hazardous_asteroid": false,
    "close_approach_data": [
        {
            "close_approach_date": "2014-03-01",
            "close_approach_date_full": "2014-Mar-01 02:18",
            "epoch_date_close_approach": 1393640280000,
            "relative_velocity": {
                "kilometers_per_second": "14.5715980071",
                "kilometers_per_hour": "52457.7528255816",
                "miles_per_hour": "32595.2075820954"
            },
            "miss_distance": {
                "astronomical": "0.2274794019",
                "lunar": "88.4894873391",
                "kilometers": "34030433.993113953",
                "miles": "21145531.1520124314"
            },
            "orbiting_body": "Earth"
        }
    ],
    "orbital_data": {
        "orbit_id": "6",
        "orbit_determination_date": "2017-04-06 08:42:35",
        "first_observation_date": "2014-01-23",
        "last_observation_date": "2014-02-06",
        "data_arc_in_days": 14,
        "observations_used": 14,
        "orbit_uncertainty": "9",
        "minimum_orbit_intersection": ".133265",
        "jupiter_tisserand_invariant": "3.423",
        "epoch_osculation": "2456692.5",
        "eccentricity": ".6457079161020723",
        "semi_major_axis": "2.115447384243713",
        "inclination": "8.592928603350526",
        "ascending_node_longitude": "182.0032239154149",
        "orbital_period": "1123.832969793101",
        "perihelion_distance": ".7494862621401251",
        "perihelion_argument": "359.4935074139022",
        "aphelion_distance": "3.481408506347301",
        "perihelion_time": "2456731.026079190722",
        "mean_anomaly": "347.6588524438704",
        "mean_motion": ".3203322999736131",
        "equinox": "J2000",
        "orbit_class": {
            "orbit_class_type": "APO",
            "orbit_class_description": "Near-Earth asteroid orbits which cross the Earth’s orbit similar to that of 1862 Apollo",
            "orbit_class_range": "a (semi-major axis) > 1.0 AU; q (perihelion) < 1.017 AU"
        }
    },
    "is_sentry_object": false
}